VIZARD-METEO (RS38S)    
1 57189U 23091Z   25317.77461197  .00048929  00000+0  17727-2 0  9992
2 57189  97.5411  18.8160 0009820 113.8367 246.3902 15.28170250131700
NANOZOND 1 (RS49S)      
1 57190U 23091AA  25317.71083909  .00160871  00000+0  29469-2 0  9996
2 57190  97.5350  26.2432 0005239  98.3701 261.8143 15.48712773132207
POLYTECH-UNIVERSE 3 (R*)
1 57191U 23091AB  25317.77454748  .00020526  00000+0  10531-2 0  9998
2 57191  97.5386  11.9462 0017091 153.6342 206.5765 15.16435398131278
UTMN 2 (RS27S)          
1 57203U 23091AP  25317.76111081  .00041169  00000+0  16071-2 0  9992
2 57203  97.5410  17.6005 0010583 117.3892 242.8424 15.25732723131628
ARCCUBE 1 (RS25S)       
1 57205U 23091AR  25317.64833170  .01051889  00000+0  35356-2 0  9999
2 57205  97.5163  32.1617 0002933 298.0774  62.0200 15.87617409132617
KUZGTU 1 (RS47S)        
1 57217U 23091AV  25317.78080262  .00041596  00000+0  17116-2 0  9990
2 57217  97.5393  15.5928 0013543 131.7738 228.4659 15.23930183131507
SONATE-2                
1 59112U 24043Q   25317.61846579  .00048752  00000+0  11003-2 0  9997
2 59112  97.5313  92.8336 0008815 270.7342  89.2895 15.43026913 94486
MESAT1                  
1 60209U 24125G   25317.38446510  .00057064  00000+0  12467-2 0  9993
2 60209  97.2565 167.7818 0014102 295.8211  64.1583 15.43890888 76078
OOV-CUBE (TUBSAT-30)    
1 60240U 24128F   25317.24462593  .00009088  00000+0  69140-3 0  9999
2 60240  61.9954 257.8263 0058844  88.0399 272.7429 15.01349320 73671
COLIBRI-S (RS67S)       
1 61746U 24199M   25317.74577157  .00052356  00000+0  13999-2 0  9993
2 61746  97.3292 185.6983 0010489 352.5737   7.5351 15.37839102104197
HORS 3 (RS81S)          
1 61753U 24199U   25317.73375571  .00082443  00000+0  20007-2 0  9994
2 61753  97.3264 186.1711 0008983   2.7354 357.3940 15.40688096104237
HORS 4 (RS82S)          
1 61754U 24199V   25317.76395547  .00084831  00000+0  19587-2 0  9997
2 61754  97.3250 186.5636 0009129   0.8280 359.2981 15.42180429104261
HORIZON (RS59S)         
1 61757U 24199Y   25317.78808566  .00137867  00000+0  24450-2 0  9995
2 61757  97.3257 188.3128 0007767 349.4123  10.6964 15.49711260104372
ARCTICSAT 1 (RS74S)     
1 61762U 24199AD  25317.76053380  .00124683  00000+0  23002-2 0  9999
2 61762  97.3261 188.1922 0008053 346.8090  13.2949 15.48628850104368
SIT-2086                
1 61764U 24199AF  25317.74268488  .00053695  00000+0  12891-2 0  9994
2 61764  97.3263 186.9211 0007814 349.0750  11.0325 15.41153365101123
MORDOVIA-IOT (RS50S)    
1 61765U 24199AG  25317.74079924  .00242464  00000+0  28372-2 0  9995
2 61765  97.3196 190.2597 0005516 352.0228   8.0941 15.60742675101359
RUZAEVKA 390 (RS44S)    
1 61766U 24199AH  25317.66791324  .00196703  00000+0  27677-2 0  9993
2 61766  97.3216 189.4445 0006090 349.3676  10.7449 15.55964593101294
HYPERVIEW 1G (RS66S)    
1 61772U 24199AP  25317.75141076  .00107748  00000+0  22599-2 0  9992
2 61772  97.3247 186.8836 0011119 359.0923   1.0303 15.44928089101134
ALTAIR (RS65S)          
1 61779U 24199AW  25317.74652001  .00031434  00000+0  10139-2 0  9998
2 61779  97.3292 183.8279 0014796   6.2070 353.9353 15.31987793104070
ASRTU-1 (AO-123)        
1 61781U 24199AY  25317.72852378  .00029367  00000+0  97174-3 0  9995
2 61781  97.3281 183.5087 0015278   6.9508 353.1943 15.31173428100901
TUSUR GO (RS78S)        
1 61782U 24199AZ  25317.77403084  .00143838  00000+0  26247-2 0  9999
2 61782  97.3234 187.4376 0010618 358.7290   1.3932 15.48846690101179
SAMSAT-IONOSPHERE (RS7*)
1 61784U 24199BB  25317.73775719  .00089905  00000+0  21673-2 0  9996
2 61784  97.3261 185.8747 0012812   0.9290 359.1978 15.40816082104215
RTU MIREA 1 (RS51S)     
1 61785U 24199BC  25317.77468103  .00088347  00000+0  20632-2 0  9990
2 61785  97.3258 186.1211 0012411 359.6731   0.4506 15.41787574101080
HADES-R                 
1 62690U 25009CK  25317.20525541  .00230096  00000+0  40904-2 0  9999
2 62690  97.3932  38.9123 0003118 249.7283 110.3633 15.49323987 46190
TEVEL2-4                
1 63213U 25052D   25317.28057424  .00040640  00000+0  15919-2 0  9999
2 63213  97.4108 209.3442 0004292 121.7681 238.3976 15.25664801 37098
TEVEL2-5                
1 63214U 25052E   25316.43205399  .00049478  00000+0  19437-2 0  9999
2 63214  97.4111 208.4947 0004209 124.1178 236.0460 15.25517699 36969
TEVEL2-6                
1 63215U 25052F   25317.22553808  .00040981  00000+0  16106-2 0  9999
2 63215  97.4111 209.2701 0004320 122.0525 238.1133 15.25551694 37081
TEVEL2-1                
1 63217U 25052H   25317.19658870  .00041552  00000+0  16477-2 0  9998
2 63217  97.4081 209.0763 0003917 131.1934 228.9642 15.25248713 37077
TEVEL2-3                
1 63218U 25052J   25317.13055403  .00034057  00000+0  13523-2 0  9997
2 63218  97.4083 209.0153 0003872 135.8736 224.2812 15.25251467 37061
TEVEL2-2                
1 63219U 25052K   25317.65660005  .00039072  00000+0  15482-2 0  9993
2 63219  97.4081 209.5317 0003931 133.1750 226.9817 15.25289598 37149
TEVEL2-9                
1 63237U 25052AD  25317.65745766  .00036734  00000+0  15185-2 0  9993
2 63237  97.4147 209.2792 0006939 167.1336 193.0080 15.23866678 37115
TEVEL2-7                
1 63238U 25052AE  25317.60303185  .00034564  00000+0  14351-2 0  9997
2 63238  97.4146 209.2053 0007011 167.4719 192.6693 15.23731550 37109
TEVEL2-8                
1 63239U 25052AF  25317.47681719  .00036160  00000+0  15026-2 0  9999
2 63239  97.4151 209.0662 0006988 167.5379 192.6032 15.23694003 37080
HADES-ICM               
1 63492U 25052BN  25317.66370227  .00099492  00000+0  28747-2 0  9991
2 63492  97.4092 210.9381 0008892 157.6077 202.5556 15.35220137 37230
INNOSAT 16 (RS92S7)     
1 64878U 25155C   25317.57160279  .00010461  00000+0  45495-3 0  9997
2 64878  97.4291 281.2710 0009864 216.2722 143.7847 15.22405810 47831
GEOSCAN 6 (RS92S6)      
1 64879U 25155D   25317.60900070  .00022368  00000+0  90591-3 0  9999
2 64879  97.4294 281.5439 0007114 205.8650 154.2233 15.24660818 47857
GEOSCAN 1 (RS92S1)      
1 64880U 25155E   25317.60296896  .00025388  00000+0  10218-2 0  9997
2 64880  97.4295 281.5565 0006984 206.5465 153.5416 15.24847376 47857
239ALFEROV (RS61S)      
1 64881U 25155F   25317.57915355  .00031534  00000+0  12419-2 0  9997
2 64881  97.4307 281.6054 0006593 204.9099 155.1822 15.25529746 47855
GEOSCAN 2 (RS92S2)      
1 64890U 25155Q   25317.63981147  .00024182  00000+0  96305-3 0  9994
2 64890  97.4294 281.6499 0006809 189.1734 170.9380 15.25212018 47869
GEOSCAN 5 (RS92S5)      
1 64891U 25155R   25317.68168816  .00028096  00000+0  10952-2 0  9991
2 64891  97.4300 281.7547 0005086 209.3881 150.7072 15.25905058 47875
GEOSCAN 4 (RS92S4)      
1 64892U 25155S   25317.67992833  .00029021  00000+0  11293-2 0  9993
2 64892  97.4301 281.7597 0005072 210.4157 149.6787 15.25956660 47871
GEOSCAN 3 (RS92S3)      
1 64893U 25155T   25317.66179486  .00034366  00000+0  13144-2 0  9999
2 64893  97.4297 281.7794 0004671 213.0996 146.9950 15.26498010 47872
INNOSAT 3 (RS92S0)      
1 64894U 25155U   25317.67982088  .00045264  00000+0  16371-2 0  9995
2 64894  97.4285 281.9023 0003815 209.0527 151.0501 15.28283187 47880
